IRIDIUM 26              
1 24903U 97043A   25204.18272368  .00000349  00000+0  11094-3 0  9994
2 24903  86.3942  95.5015 0002075  80.2922 279.8510 14.37166935462384
IRIDIUM 22              
1 24907U 97043E   25203.44549325  .00000273  00000+0  87104-4 0  9998
2 24907  86.3951  99.3824 0002087  85.7620 274.3815 14.35975989461838
DUMMY MASS 1            
1 24925U 97048A   25203.81394646  .00000382  00000+0  39443-4 0  9992
2 24925  86.3362 118.8623 0007857  37.2325 322.9443 14.87009231510660
DUMMY MASS 2            
1 24926U 97048B   25203.51281354  .00000375  00000+0  38927-4 0  9999
2 24926  86.3364 120.6153 0009019  46.1425 314.0543 14.86760968510151
IRIDIUM 29              
1 24944U 97051A   25204.22211367  .00000378  00000+0  12228-3 0  9997
2 24944  86.3984 128.7902 0002290  90.4031 269.7428 14.36490890458663
IRIDIUM 33              
1 24946U 97051C   25204.17376280  .00000286  00000+0  93746-4 0  9992
2 24946  86.3900 128.0738 0006854 336.6824  23.4060 14.34910604457910
IRIDIUM 28              
1 24948U 97051E   25204.17293042  .00000322  00000+0  10121-3 0  9994
2 24948  86.3987 126.3064 0002033  72.3586 287.7834 14.37405951459085
IRIDIUM 36              
1 24967U 97056C   25203.57383162  .00000356  00000+0  11219-3 0  9992
2 24967  86.4012 158.1439 0002005  86.2028 273.9399 14.37631456457306
